{"type": "FeatureCollection", "features": [ {"type": "Feature", "properties": {"norad_id": 38552, "name": "METEOSAT-10 (MSG-3)", "group": "weather", "lat": 3.015021736187348, "lon": -163.30024519758325, "alt_km": 35791.09289761874, "timestamp": "2025-12-27T06:41:30.541943+00:00", "meta": {"OBJECT_NAME": "METEOSAT-10 (MSG-3)", "OBJECT_ID": "2012-035B", "EPOCH": "2025-12-25T19:55:02.807904", "MEAN_MOTION": 1.00266624, "ECCENTRICITY": 0.0001479, "INCLINATION": 4.2575, "RA_OF_ASC_NODE": 61.6862, "ARG_OF_PERICENTER": 265.3349, "MEAN_ANOMALY": 66.5982, "EPHEMERIS_TYPE": 0, "CLASSIFICATION_TYPE": "U", "NORAD_CAT_ID": 38552, "ELEMENT_SET_NO": 999, "REV_AT_EPOCH": 4911, "BSTAR": 0, "MEAN_MOTION_DOT": 1.4e-07, "MEAN_MOTION_DDOT": 0}, "tle": {"line1": "1 38552U 12035B   25359.82989361  .00000014  00000+0  00000+0 0  9997", "line2": "2 38552   4.2575  61.6862 0001479 265.3349  66.5982  1.00266624 49118"}}, "geometry": {"type": "Point", "coordinates": [-163.30024519758325, 3.015021736187348]}}, {"type": "Feature", "properties": {"norad_id": 38771, "name": "METOP-B", "group": "weather", "lat": -74.04712668020154, "lon": 83.28453071722657, "alt_km": 830.208350816245, "timestamp": "2025-12-27T06:41:30.541954+00:00", "meta": {"OBJECT_NAME": "METOP-B", "OBJECT_ID": "2012-049A", "EPOCH": "2025-12-26T22:36:16.783488", "MEAN_MOTION": 14.21413767, "ECCENTRICITY": 0.00033084, "INCLINATION": 98.678, "RA_OF_ASC_NODE": 50.6585, "ARG_OF_PERICENTER": 114.8079, "MEAN_ANOMALY": 245.3443, "EPHEMERIS_TYPE": 0, "CLASSIFICATION_TYPE": "U", "NORAD_CAT_ID": 38771, "ELEMENT_SET_NO": 999, "REV_AT_EPOCH": 68879, "BSTAR": 8.8412243e-05, "MEAN_MOTION_DOT": 1.5e-06, "MEAN_MOTION_DDOT": 0}, "tle": {"line1": "1 38771U 12049A   25360.94186092  .00000150  00000+0  88412-4 0  9999", "line2": "2 38771  98.6780  50.6585 0003308 114.8079 245.3443 14.21413767688798"}}, "geometry": {"type": "Point", "coordinates": [83.28453071722657, -74.04712668020154]}}, {"type": "Feature", "properties": {"norad_id": 39216, "name": "INSAT-3D", "group": "weather", "lat": -1.3096094508039473, "lon": -34.046120804727835, "alt_km": 35784.7334952539, "timestamp": "2025-12-27T06:41:30.541967+00:00", "meta": {"OBJECT_NAME": "INSAT-3D", "OBJECT_ID": "2013-038B", "EPOCH": "2025-12-26T22:12:35.823168", "MEAN_MOTION": 1.00273097, "ECCENTRICITY": 0.00019753, "INCLINATION": 1.4796, "RA_OF_ASC_NODE": 84.8346, "ARG_OF_PERICENTER": 159.2088, "MEAN_ANOMALY": 314.3238, "EPHEMERIS_TYPE": 0, "CLASSIFICATION_TYPE": "U", "NORAD_CAT_ID": 39216, "ELEMENT_SET_NO": 999, "REV_AT_EPOCH": 4535, "BSTAR": 0, "MEAN_MOTION_DOT": -3.17e-06, "MEAN_MOTION_DDOT": 0}, "tle": {"line1": "1 39216U 13038B   25360.92541462 -.00000317  00000+0  00000+0 0  9995", "line2": "2 39216   1.4796  84.8346 0001975 159.2088 314.3238  1.00273097 45358"}}, "geometry": {"type": "Point", "coordinates": [-34.046120804727835, -1.3096094508039473]}}, {"type": "Feature", "properties": {"norad_id": 39260, "name": "FENGYUN 3C", "group": "weather", "lat": -51.06740540571733, "lon": 147.60965875369837, "alt_km": 844.457053998075, "timestamp": "2025-12-27T06:41:30.541978+00:00", "meta": {"OBJECT_NAME": "FENGYUN 3C", "OBJECT_ID": "2013-052A", "EPOCH": "2025-12-26T22:48:59.355072", "MEAN_MOTION": 14.15700585, "ECCENTRICITY": 0.00150769, "INCLINATION": 98.478, "RA_OF_ASC_NODE": 337.9372, "ARG_OF_PERICENTER": 155.2012, "MEAN_ANOMALY": 204.989, "EPHEMERIS_TYPE": 0, "CLASSIFICATION_TYPE": "U", "NORAD_CAT_ID": 39260, "ELEMENT_SET_NO": 999, "REV_AT_EPOCH": 63419, "BSTAR": 7.7586581e-05, "MEAN_MOTION_DOT": 1.11e-06, "MEAN_MOTION_DDOT": 0}, "tle": {"line1": "1 39260U 13052A   25360.95068698  .00000111  00000+0  77587-4 0  9998", "line2": "2 39260  98.4780 337.9372 0015076 155.2012 204.9890 14.15700585634198"}}, "geometry": {"type": "Point", "coordinates": [147.60965875369837, -51.06740540571733]}}, {"type": "Feature", "properties": {"norad_id": 40069, "name": "METEOR-M 2", "group": "weather", "lat": 29.127120591995066, "lon": 163.08260606605378, "alt_km": 815.2107756094701, "timestamp": "2025-12-27T06:41:30.541996+00:00", "meta": {"OBJECT_NAME": "METEOR-M 2", "OBJECT_ID": "2014-037A", "EPOCH": "2025-12-26T23:13:43.242240", "MEAN_MOTION": 14.21391646, "ECCENTRICITY": 0.00057367, "INCLINATION": 98.4924, "RA_OF_ASC_NODE": 338.0079, "ARG_OF_PERICENTER": 165.8734, "MEAN_ANOMALY": 194.2605, "EPHEMERIS_TYPE": 0, "CLASSIFICATION_TYPE": "U", "NORAD_CAT_ID": 40069, "ELEMENT_SET_NO": 999, "REV_AT_EPOCH": 59485, "BSTAR": 2.0690964e-05, "MEAN_MOTION_DOT": 3e-08, "MEAN_MOTION_DDOT": 0}, "tle": {"line1": "1 40069U 14037A   25360.96786160  .00000003  00000+0  20691-4 0  9997", "line2": "2 40069  98.4924 338.0079 0005736 165.8734 194.2605 14.21391646594857"}}, "geometry": {"type": "Point", "coordinates": [163.08260606605378, 29.127120591995066]}}, {"type": "Feature", "properties": {"norad_id": 40267, "name": "HIMAWARI-8", "group": "weather", "lat": 0.022133580989566318, "lon": -22.95055772968498, "alt_km": 35782.88603579296, "timestamp": "2025-12-27T06:41:30.542017+00:00", "meta": {"OBJECT_NAME": "HIMAWARI-8", "OBJECT_ID": "2014-060A", "EPOCH": "2025-12-26T08:33:59.245344", "MEAN_MOTION": 1.0027063, "ECCENTRICITY": 0.000101, "INCLINATION": 0.0427, "RA_OF_ASC_NODE": 196.506, "ARG_OF_PERICENTER": 108.6661, "MEAN_ANOMALY": 59.0936, "EPHEMERIS_TYPE": 0, "CLASSIFICATION_TYPE": "U", "NORAD_CAT_ID": 40267, "ELEMENT_SET_NO": 999, "REV_AT_EPOCH": 4102, "BSTAR": 0, "MEAN_MOTION_DOT": -2.54e-06, "MEAN_MOTION_DDOT": 0}, "tle": {"line1": "1 40267U 14060A   25360.35693571 -.00000254  00000+0  00000+0 0  9995", "line2": "2 40267   0.0427 196.5060 0001010 108.6661  59.0936  1.00270630 41029"}}, "geometry": {"type": "Point", "coordinates": [-22.95055772968498, 0.022133580989566318]}}, {"type": "Feature", "properties": {"norad_id": 40367, "name": "FENGYUN 2G", "group": "weather", "lat": -3.4137648122560758, "lon": -64.40360382080863, "alt_km": 35779.045702758514, "timestamp": "2025-12-27T06:41:30.542031+00:00", "meta": {"OBJECT_NAME": "FENGYUN 2G", "OBJECT_ID": "2014-090A", "EPOCH": "2025-12-26T20:25:12.847296", "MEAN_MOTION": 1.00281295, "ECCENTRICITY": 0.00017926, "INCLINATION": 5.2009, "RA_OF_ASC_NODE": 74.9231, "ARG_OF_PERICENTER": 170.6742, "MEAN_ANOMALY": 255.5929, "EPHEMERIS_TYPE": 0, "CLASSIFICATION_TYPE": "U", "NORAD_CAT_ID": 40367, "ELEMENT_SET_NO": 999, "REV_AT_EPOCH": 4027, "BSTAR": 0, "MEAN_MOTION_DOT": -2.81e-06, "MEAN_MOTION_DDOT": 0}, "tle": {"line1": "1 40367U 14090A   25360.85084314 -.00000281  00000+0  00000+0 0  9993", "line2": "2 40367   5.2009  74.9231 0001792 170.6742 255.5929  1.00281295 40278"}}, "geometry": {"type": "Point", "coordinates": [-64.40360382080863, -3.4137648122560758]}}, {"type": "Feature", "properties": {"norad_id": 40732, "name": "METEOSAT-11 (MSG-4)", "group": "weather", "lat": 2.003188587977885, "lon": -154.3981639998069, "alt_km": 35782.82242773828, "timestamp": "2025-12-27T06:41:30.542043+00:00", "meta": {"OBJECT_NAME": "METEOSAT-11 (MSG-4)", "OBJECT_ID": "2015-034A", "EPOCH": "2025-12-25T16:31:52.264704", "MEAN_MOTION": 1.00271545, "ECCENTRICITY": 6.999e-05, "INCLINATION": 2.7688, "RA_OF_ASC_NODE": 71.966, "ARG_OF_PERICENTER": 136.703, "MEAN_ANOMALY": 142.9271, "EPHEMERIS_TYPE": 0, "CLASSIFICATION_TYPE": "U", "NORAD_CAT_ID": 40732, "ELEMENT_SET_NO": 999, "REV_AT_EPOCH": 547, "BSTAR": 0, "MEAN_MOTION_DOT": 8.2e-07, "MEAN_MOTION_DDOT": 0}, "tle": {"line1": "1 40732U 15034A   25359.68879936  .00000082  00000+0  00000+0 0  9997", "line2": "2 40732   2.7688  71.9660 0000699 136.7030 142.9271  1.00271545  5479"}}, "geometry": {"type": "Point", "coordinates": [-154.3981639998069, 2.003188587977885]}}, {"type": "Feature", "properties": {"norad_id": 41105, "name": "ELEKTRO-L 2", "group": "weather", "lat": 5.916144459681622, "lon": -178.01715202863943, "alt_km": 35787.52235699876, "timestamp": "2025-12-27T06:41:30.542056+00:00", "meta": {"OBJECT_NAME": "ELEKTRO-L 2", "OBJECT_ID": "2015-074A", "EPOCH": "2025-12-26T23:14:16.416384", "MEAN_MOTION": 1.00271692, "ECCENTRICITY": 0.00036716, "INCLINATION": 6.2592, "RA_OF_ASC_NODE": 72.6587, "ARG_OF_PERICENTER": 207.2982, "MEAN_ANOMALY": 149.8476, "EPHEMERIS_TYPE": 0, "CLASSIFICATION_TYPE": "U", "NORAD_CAT_ID": 41105, "ELEMENT_SET_NO": 999, "REV_AT_EPOCH": 3677, "BSTAR": 0, "MEAN_MOTION_DOT": -9.7e-07, "MEAN_MOTION_DDOT": 0}, "tle": {"line1": "1 41105U 15074A   25360.96824556 -.00000097  00000+0  00000+0 0  9994", "line2": "2 41105   6.2592  72.6587 0003671 207.2982 149.8476  1.00271692 36779"}}, "geometry": {"type": "Point", "coordinates": [-178.01715202863943, 5.916144459681622]}}, {"type": "Feature", "properties": {"norad_id": 41752, "name": "INSAT-3DR", "group": "weather", "lat": -0.020080137979683027, "lon": -89.63342920453172, "alt_km": 35725.34654619738, "timestamp": "2025-12-27T06:41:30.542068+00:00", "meta": {"OBJECT_NAME": "INSAT-3DR", "OBJECT_ID": "2016-054A", "EPOCH": "2025-12-26T03:06:52.542720", "MEAN_MOTION": 1.00271485, "ECCENTRICITY": 0.0014374, "INCLINATION": 0.0398, "RA_OF_ASC_NODE": 84.8108, "ARG_OF_PERICENTER": 187.3091, "MEAN_ANOMALY": 303.4691, "EPHEMERIS_TYPE": 0, "CLASSIFICATION_TYPE": "U", "NORAD_CAT_ID": 41752, "ELEMENT_SET_NO": 999, "REV_AT_EPOCH": 3408, "BSTAR": 0, "MEAN_MOTION_DOT": -5.5e-07, "MEAN_MOTION_DDOT": 0}, "tle": {"line1": "1 41752U 16054A   25360.12977480 -.00000055  00000+0  00000+0 0  9998", "line2": "2 41752   0.0398  84.8108 0014374 187.3091 303.4691  1.00271485 34087"}}, "geometry": {"type": "Point", "coordinates": [-89.63342920453172, -0.020080137979683027]}}]}